{
  "type": "FeatureCollection",
  "features": [
    {
      "type": "Feature",
      "properties": {
        "norad_id": 34752,
        "name": "COSMOS 2251 DEB",
        "group": "cosmos-2251-debris",
        "lat": -53.55977566494522,
        "lon": -44.56591571323274,
        "alt_km": 603.9748178084992,
        "timestamp": "2025-12-23T16:57:12.749890+00:00",
        "meta_object_name": "COSMOS 2251 DEB",
        "meta_object_id": "1993-036ZW",
        "meta_epoch": "2025-12-23T01:12:09.902304",
        "meta_mean_motion": 15.00151807,
        "meta_eccentricity": 0.00474654,
        "meta_inclination": 74.0138,
        "meta_ra_of_asc_node": 339.6166,
        "meta_arg_of_pericenter": 104.7129,
        "meta_mean_anomaly": 255.9325,
        "meta_ephemeris_type": 0,
        "meta_classification_type": "U",
        "meta_norad_cat_id": 34752,
        "meta_element_set_no": 999,
        "meta_rev_at_epoch": 90004,
        "meta_bstar": 0.0010897318,
        "meta_mean_motion_dot": 0.00013923,
        "meta_mean_motion_ddot": 0,
        "tle_line1": "1 34752U 93036ZW  25357.05011461  .00013923  00000+0  10897-2 0  9996",
        "tle_line2": "2 34752  74.0138 339.6166 0047465 104.7129 255.9325 15.00151807900042"
      },
      "geometry": {
        "type": "Point",
        "coordinates": [
          -44.56591571323274,
          -53.55977566494522
        ]
      }
    },
    {
      "type": "Feature",
      "properties": {
        "norad_id": 34754,
        "name": "COSMOS 2251 DEB",
        "group": "cosmos-2251-debris",
        "lat": 73.93782452001223,
        "lon": -68.61556738875197,
        "alt_km": 762.2815182541653,
        "timestamp": "2025-12-23T16:57:12.749900+00:00",
        "meta_object_name": "COSMOS 2251 DEB",
        "meta_object_id": "1993-036ZY",
        "meta_epoch": "2025-12-22T14:01:00.618816",
        "meta_mean_motion": 14.40494534,
        "meta_eccentricity": 0.00299317,
        "meta_inclination": 74.0293,
        "meta_ra_of_asc_node": 209.393,
        "meta_arg_of_pericenter": 323.6263,
        "meta_mean_anomaly": 66.4846,
        "meta_ephemeris_type": 0,
        "meta_classification_type": "U",
        "meta_norad_cat_id": 34754,
        "meta_element_set_no": 999,
        "meta_rev_at_epoch": 88275,
        "meta_bstar": 0.00017314509,
        "meta_mean_motion_dot": 5.27e-06,
        "meta_mean_motion_ddot": 0,
        "tle_line1": "1 34754U 93036ZY  25356.58403494  .00000527  00000+0  17315-3 0  9995",
        "tle_line2": "2 34754  74.0293 209.3930 0029931 323.6263  66.4846 14.40494534882757"
      },
      "geometry": {
        "type": "Point",
        "coordinates": [
          -68.61556738875197,
          73.93782452001223
        ]
      }
    },
    {
      "type": "Feature",
      "properties": {
        "norad_id": 34755,
        "name": "COSMOS 2251 DEB",
        "group": "cosmos-2251-debris",
        "lat": -61.81232945668685,
        "lon": 124.94756631100077,
        "alt_km": 851.6642348709474,
        "timestamp": "2025-12-23T16:57:12.749910+00:00",
        "meta_object_name": "COSMOS 2251 DEB",
        "meta_object_id": "1993-036ZZ",
        "meta_epoch": "2025-12-20T18:30:29.240064",
        "meta_mean_motion": 13.50572591,
        "meta_eccentricity": 0.04081275,
        "meta_inclination": 73.9255,
        "meta_ra_of_asc_node": 277.1155,
        "meta_arg_of_pericenter": 295.5233,
        "meta_mean_anomaly": 88.1239,
        "meta_ephemeris_type": 0,
        "meta_classification_type": "U",
        "meta_norad_cat_id": 34755,
        "meta_element_set_no": 999,
        "meta_rev_at_epoch": 82632,
        "meta_bstar": 0.00057435404,
        "meta_mean_motion_dot": 5.95e-06,
        "meta_mean_motion_ddot": 0,
        "tle_line1": "1 34755U 93036ZZ  25354.77117176  .00000595  00000+0  57435-3 0  9996",
        "tle_line2": "2 34755  73.9255 277.1155 0408127 295.5233  88.1239 13.50572591826326"
      },
      "geometry": {
        "type": "Point",
        "coordinates": [
          124.94756631100077,
          -61.81232945668685
        ]
      }
    },
    {
      "type": "Feature",
      "properties": {
        "norad_id": 34756,
        "name": "COSMOS 2251 DEB",
        "group": "cosmos-2251-debris",
        "lat": 72.7197179449803,
        "lon": -160.90297980446888,
        "alt_km": 1183.9981560863607,
        "timestamp": "2025-12-23T16:57:12.749921+00:00",
        "meta_object_name": "COSMOS 2251 DEB",
        "meta_object_id": "1993-036AAA",
        "meta_epoch": "2025-12-22T12:23:20.340096",
        "meta_mean_motion": 13.6726693,
        "meta_eccentricity": 0.03457457,
        "meta_inclination": 74.0031,
        "meta_ra_of_asc_node": 88.2919,
        "meta_arg_of_pericenter": 322.0021,
        "meta_mean_anomaly": 35.7148,
        "meta_ephemeris_type": 0,
        "meta_classification_type": "U",
        "meta_norad_cat_id": 34756,
        "meta_element_set_no": 999,
        "meta_rev_at_epoch": 83555,
        "meta_bstar": 0.0010168028,
        "meta_mean_motion_dot": 1.267e-05,
        "meta_mean_motion_ddot": 0,
        "tle_line1": "1 34756U 93036AAA 25356.51620764  .00001267  00000+0  10168-2 0  9991",
        "tle_line2": "2 34756  74.0031  88.2919 0345745 322.0021  35.7148 13.67266930835554"
      },
      "geometry": {
        "type": "Point",
        "coordinates": [
          -160.90297980446888,
          72.7197179449803
        ]
      }
    },
    {
      "type": "Feature",
      "properties": {
        "norad_id": 34758,
        "name": "COSMOS 2251 DEB",
        "group": "cosmos-2251-debris",
        "lat": -24.936792737541754,
        "lon": 109.45951247419225,
        "alt_km": 1317.8743925705994,
        "timestamp": "2025-12-23T16:57:12.749932+00:00",
        "meta_object_name": "COSMOS 2251 DEB",
        "meta_object_id": "1993-036AAC",
        "meta_epoch": "2025-12-23T01:49:17.476608",
        "meta_mean_motion": 13.58107356,
        "meta_eccentricity": 0.03822072,
        "meta_inclination": 74.107,
        "meta_ra_of_asc_node": 282.8618,
        "meta_arg_of_pericenter": 44.1617,
        "meta_mean_anomaly": 318.934,
        "meta_ephemeris_type": 0,
        "meta_classification_type": "U",
        "meta_norad_cat_id": 34758,
        "meta_element_set_no": 999,
        "meta_rev_at_epoch": 83050,
        "meta_bstar": 0.0017020771,
        "meta_mean_motion_dot": 1.966e-05,
        "meta_mean_motion_ddot": 0,
        "tle_line1": "1 34758U 93036AAC 25357.07589672  .00001966  00000+0  17021-2 0  9998",
        "tle_line2": "2 34758  74.1070 282.8618 0382207  44.1617 318.9340 13.58107356830501"
      },
      "geometry": {
        "type": "Point",
        "coordinates": [
          109.45951247419225,
          -24.936792737541754
        ]
      }
    },
    {
      "type": "Feature",
      "properties": {
        "norad_id": 34760,
        "name": "COSMOS 2251 DEB",
        "group": "cosmos-2251-debris",
        "lat": 0.9630037764735234,
        "lon": -76.93649319248094,
        "alt_km": 767.5329451637272,
        "timestamp": "2025-12-23T16:57:12.749942+00:00",
        "meta_object_name": "COSMOS 2251 DEB",
        "meta_object_id": "1993-036AAE",
        "meta_epoch": "2025-12-23T03:43:05.079360",
        "meta_mean_motion": 14.19595173,
        "meta_eccentricity": 0.00972201,
        "meta_inclination": 74.0632,
        "meta_ra_of_asc_node": 283.7721,
        "meta_arg_of_pericenter": 333.614,
        "meta_mean_anomaly": 89.7391,
        "meta_ephemeris_type": 0,
        "meta_classification_type": "U",
        "meta_norad_cat_id": 34760,
        "meta_element_set_no": 999,
        "meta_rev_at_epoch": 86836,
        "meta_bstar": 0.00053269604,
        "meta_mean_motion_dot": 1.153e-05,
        "meta_mean_motion_ddot": 0,
        "tle_line1": "1 34760U 93036AAE 25357.15491990  .00001153  00000+0  53270-3 0  9990",
        "tle_line2": "2 34760  74.0632 283.7721 0097220 333.6140  89.7391 14.19595173868367"
      },
      "geometry": {
        "type": "Point",
        "coordinates": [
          -76.93649319248094,
          0.9630037764735234
        ]
      }
    },
    {
      "type": "Feature",
      "properties": {
        "norad_id": 34761,
        "name": "COSMOS 2251 DEB",
        "group": "cosmos-2251-debris",
        "lat": -65.18748689134833,
        "lon": -55.69538113994322,
        "alt_km": 769.0154425739574,
        "timestamp": "2025-12-23T16:57:12.749953+00:00",
        "meta_object_name": "COSMOS 2251 DEB",
        "meta_object_id": "1993-036AAF",
        "meta_epoch": "2025-12-23T05:35:37.346496",
        "meta_mean_motion": 14.38085357,
        "meta_eccentricity": 0.00369815,
        "meta_inclination": 74.0286,
        "meta_ra_of_asc_node": 343.4526,
        "meta_arg_of_pericenter": 14.65,
        "meta_mean_anomaly": 345.5717,
        "meta_ephemeris_type": 0,
        "meta_classification_type": "U",
        "meta_norad_cat_id": 34761,
        "meta_element_set_no": 999,
        "meta_rev_at_epoch": 87800,
        "meta_bstar": 0.00059051219,
        "meta_mean_motion_dot": 1.777e-05,
        "meta_mean_motion_ddot": 0,
        "tle_line1": "1 34761U 93036AAF 25357.23307114  .00001777  00000+0  59051-3 0  9999",
        "tle_line2": "2 34761  74.0286 343.4526 0036981  14.6500 345.5717 14.38085357878009"
      },
      "geometry": {
        "type": "Point",
        "coordinates": [
          -55.69538113994322,
          -65.18748689134833
        ]
      }
    }
  ]
}